[{"OBJECT_NAME":"STARLINK-31313","OBJECT_ID":"2024-041Q","EPOCH":"2026-03-09T00:57:40.391712","MEAN_MOTION":15.27572063,"ECCENTRICITY":0.00018741,"INCLINATION":43.0024,"RA_OF_ASC_NODE":314.2433,"ARG_OF_PERICENTER":256.6446,"MEAN_ANOMALY":103.4196,"EPHEMERIS_TYPE":0,"CLASSIFICATION_TYPE":"U","NORAD_CAT_ID":59088,"ELEMENT_SET_NO":999,"REV_AT_EPOCH":11417,"BSTAR":-0.0001235842,"MEAN_MOTION_DOT":-3.661e-5,"MEAN_MOTION_DDOT":0},{"OBJECT_NAME":"USA 74","OBJECT_ID":"1991-076C","EPOCH":"2026-03-09T09:43:12.293760","MEAN_MOTION":13.60278419,"ECCENTRICITY":0.0885176,"INCLINATION":63.2967,"RA_OF_ASC_NODE":52.2144,"ARG_OF_PERICENTER":71.2929,"MEAN_ANOMALY":298.2018,"EPHEMERIS_TYPE":0,"CLASSIFICATION_TYPE":"U","NORAD_CAT_ID":21799,"ELEMENT_SET_NO":999,"REV_AT_EPOCH":9002,"BSTAR":0.00057492031,"MEAN_MOTION_DOT":7.663e-5,"MEAN_MOTION_DDOT":0}]
